{
 "type": "FeatureCollection",
 "features": [
  {
   "type": "Feature",
   "geometry": {
    "type": "Polygon",
    "coordinates": [
     [
      [
       4.81956,
       45.76756
      ],
      [
       4.82265,
       45.76812
      ],
      [
       4.82525,
       45.76831
      ],
      [
       4.8266,
       45.76822
      ],
      [
       4.82783,
       45.76789
      ],
      [
       4.82982,
       45.76678
      ],
      [
       4.83092,
       45.76561
      ],
      [
       4.83122,
       45.76512
      ],
      [
       4.83133,
       45.76314
      ],
      [
       4.83122,
       45.76231
      ],
      [
       4.83062,
       45.76071
      ],
      [
       4.82918,
       45.75905
      ],
      [
       4.8262,
       45.75632
      ],
      [
       4.82544,
       45.75458
      ],
      [
       4.82456,
       45.75302
      ],
      [
       4.82303,
       45.75139
      ],
      [
       4.8232,
       45.75131
      ],
      [
       4.8195,
       45.7488
      ],
      [
       4.8195,
       45.75039
      ],
      [
       4.8217,
       45.75148
      ],
      [
       4.8234,
       45.75326
      ],
      [
       4.82464,
       45.756
      ],
      [
       4.82541,
       45.75698
      ],
      [
       4.82793,
       45.75949
      ],
      [
       4.82854,
       45.76054
      ],
      [
       4.82871,
       45.76057
      ],
      [
       4.82944,
       45.76219
      ],
      [
       4.82966,
       45.76349
      ],
      [
       4.8294,
       45.7653
      ],
      [
       4.82903,
       45.76617
      ],
      [
       4.82885,
       45.76641
      ],
      [
       4.82767,
       45.7672
      ],
      [
       4.82636,
       45.76756
      ],
      [
       4.82376,
       45.76753
      ],
      [
       4.82265,
       45.76743
      ],
      [
       4.82014,
       45.76679
      ],
      [
       4.8195,
       45.76674
      ],
      [
       4.8195,
       45.76755
      ],
      [
       4.81956,
       45.76756
      ],
      [
       4.81956,
       45.76756
      ]
     ]
    ]
   },
   "properties": {
    "name": "La Saône",
    "kind": "water"
   }
  },
  {
   "type": "Feature",
   "geometry": {
    "type": "Polygon",
    "coordinates": [
     [
      [
       4.84161,
       45.77424
      ],
      [
       4.8406,
       45.77255
      ],
      [
       4.84046,
       45.76947
      ],
      [
       4.84092,
       45.76539
      ],
      [
       4.84085,
       45.76389
      ],
      [
       4.84012,
       45.75843
      ],
      [
       4.8393,
       45.75636
      ],
      [
       4.83648,
       45.75228
      ],
      [
       4.83143,
       45.74578
      ],
      [
       4.82997,
       45.74454
      ],
      [
       4.82908,
       45.7435
      ],
      [
       4.82654,
       45.7435
      ],
      [
       4.82974,
       45.74724
      ],
      [
       4.83124,
       45.7488
      ],
      [
       4.83131,
       45.74904
      ],
      [
       4.83506,
       45.75436
      ],
      [
       4.83598,
       45.75559
      ],
      [
       4.8362,
       45.75563
      ],
      [
       4.8365,
       45.75604
      ],
      [
       4.83643,
       45.75618
      ],
      [
       4.83723,
       45.75728
      ],
      [
       4.83797,
       45.75936
      ],
      [
       4.83868,
       45.76278
      ],
      [
       4.83855,
       45.76534
      ],
      [
       4.83864,
       45.76539
      ],
      [
       4.83842,
       45.7673
      ],
      [
       4.83836,
       45.76928
      ],
      [
       4.83839,
       45.77135
      ],
      [
       4.83851,
       45.77152
      ],
      [
       4.83868,
       45.77348
      ],
      [
       4.83933,
       45.7745
      ],
      [
       4.84172,
       45.77445
      ],
      [
       4.84161,
       45.77424
      ],
      [
       4.84161,
       45.77424
      ]
     ]
    ]
   },
   "properties": {
    "name": "Le Rhône",
    "kind": "water"
   }
  },
  {
   "type": "Feature",
   "geometry": {
    "type": "Polygon",
    "coordinates": [
     [
      [
       4.8238,
       45.7512
      ],
      [
       4.8336,
       45.7512
      ],
      [
       4.834,
       45.7484
      ],
      [
       4.83,
       45.7478
      ],
      [
       4.824,
       45.748
      ],
      [
       4.8238,
       45.7512
      ]
     ]
    ]
   },
   "properties": {
    "name": "Emprise ferroviaire de Perrache",
    "kind": "infrastructure"
   }
  }
 ]
}
